{"type":"FeatureCollection","features":[{"type":"Feature","properties":{"nombre":"Traza Auca Mahuida — Allen (tramo 1)","origen":"DUPLICAR NORTE.kmz"},"geometry":{"type":"LineString","coordinates":[[-68.82350644,-37.484684125],[-68.823912394,-37.485347327],[-68.823163602,-37.485639302],[-68.822756637,-37.48497646],[-68.82350644,-37.484684125]]}},{"type":"Feature","properties":{"nombre":"Traza Auca Mahuida — Allen (tramo 2)","origen":"DUPLICAR NORTE.kmz"},"geometry":{"type":"LineString","coordinates":[[-68.822429675,-37.485484466],[-68.822558605,-37.485698174],[-68.822190683,-37.485839124],[-68.822061753,-37.485625415],[-68.822429675,-37.485484466]]}},{"type":"Feature","properties":{"nombre":"Traza Auca Mahuida — Allen (tramo 3)","origen":"DUPLICAR NORTE.kmz"},"geometry":{"type":"LineString","coordinates":[[-68.425258815,-37.724844266],[-68.424673159,-37.724956396],[-68.425258815,-37.724844266]]}},{"type":"Feature","properties":{"nombre":"Traza Auca Mahuida — Allen (tramo 4)","origen":"DUPLICAR NORTE.kmz"},"geometry":{"type":"LineString","coordinates":[[-68.237640471,-37.824812678],[-68.237448022,-37.82460065],[-68.237014808,-37.824848051],[-68.237207255,-37.825060079],[-68.237640471,-37.824812678]]}},{"type":"Feature","properties":{"nombre":"Traza Auca Mahuida — Allen (tramo 5)","origen":"DUPLICAR NORTE.kmz"},"geometry":{"type":"LineString","coordinates":[[-68.004327472,-37.957405714],[-68.004137061,-37.957192358],[-68.003700339,-37.957436696],[-68.003890749,-37.957650052],[-68.004327472,-37.957405714]]}},{"type":"Feature","properties":{"nombre":"Traza Auca Mahuida — Allen (tramo 6)","origen":"DUPLICAR NORTE.kmz"},"geometry":{"type":"LineString","coordinates":[[-67.983031596,-37.969247109],[-67.982900412,-37.969007392],[-67.982409653,-37.969175701],[-67.982540836,-37.969415418],[-67.983031596,-37.969247109]]}},{"type":"Feature","properties":{"nombre":"Traza Auca Mahuida — Allen (tramo 7)","origen":"DUPLICAR NORTE.kmz"},"geometry":{"type":"LineString","coordinates":[[-67.945018287,-37.994848941],[-67.945785364,-37.995419368],[-67.944008018,-37.996916121],[-67.943519037,-37.996552492],[-67.945163866,-37.995167347],[-67.945014339,-37.994846006]]}},{"type":"Feature","properties":{"nombre":"Traza Auca Mahuida — Allen (tramo 8)","origen":"DUPLICAR NORTE.kmz"},"geometry":{"type":"LineString","coordinates":[[-67.948712521,-38.175711397],[-67.948846138,-38.175894938],[-67.948559625,-38.176025226],[-67.948291825,-38.17565825],[-67.948712521,-38.175711397]]}},{"type":"Feature","properties":{"nombre":"Traza Auca Mahuida — Allen (tramo 9)","origen":"DUPLICAR NORTE.kmz"},"geometry":{"type":"LineString","coordinates":[[-67.84853149,-38.511382752],[-67.848690447,-38.510979036],[-67.848373939,-38.510901615],[-67.848214695,-38.51130605],[-67.84853149,-38.511382752]]}},{"type":"Feature","properties":{"nombre":"Traza Auca Mahuida — Allen (tramo 10)","origen":"DUPLICAR NORTE.kmz"},"geometry":{"type":"LineString","coordinates":[[-67.812157218,-38.603476693],[-67.812905775,-38.603660778],[-67.813252767,-38.60279625],[-67.812504531,-38.602611325],[-67.812157218,-38.603476693]]}},{"type":"Feature","properties":{"nombre":"Traza Auca Mahuida — Allen (tramo 11)","origen":"DUPLICAR NORTE.kmz"},"geometry":{"type":"LineString","coordinates":[[-67.75417837,-38.742990027],[-67.753919463,-38.742882153],[-67.753664868,-38.743255578],[-67.75396003,-38.743378557],[-67.75417837,-38.742990027]]}},{"type":"Feature","properties":{"nombre":"Traza Auca Mahuida — Allen (tramo 12)","origen":"DUPLICAR NORTE.kmz"},"geometry":{"type":"LineString","coordinates":[[-67.746508851,-38.754400001],[-67.746249915,-38.75429211],[-67.745995238,-38.754665516],[-67.746290433,-38.754788515],[-67.746508851,-38.754400001]]}},{"type":"Feature","properties":{"nombre":"Traza Auca Mahuida — Allen (tramo 13)","origen":"DUPLICAR NORTE.kmz"},"geometry":{"type":"LineString","coordinates":[[-67.67750612,-38.929951263],[-67.678219245,-38.92999056],[-67.678178913,-38.930412691],[-67.677427721,-38.930371296],[-67.67750612,-38.929951263]]}},{"type":"Feature","properties":{"nombre":"Traza Auca Mahuida — Allen (tramo 14)","origen":"DUPLICAR NORTE.kmz"},"geometry":{"type":"LineString","coordinates":[[-67.672050079,-38.93517343],[-67.672258541,-38.935830566],[-67.669693229,-38.936326946],[-67.669460587,-38.935606362],[-67.672050079,-38.93517343]]}},{"type":"Feature","properties":{"nombre":"Traza Auca Mahuida — Allen (tramo 15)","origen":"DUPLICAR NORTE.kmz"},"geometry":{"type":"LineString","coordinates":[[-67.683665435,-38.936074004],[-67.683742401,-38.936337424]]}},{"type":"Feature","properties":{"nombre":"Traza Auca Mahuida — Allen (tramo 16)","origen":"DUPLICAR NORTE.kmz"},"geometry":{"type":"LineString","coordinates":[[-67.683665435,-38.936074004],[-67.683748675,-38.936336258],[-67.682405528,-38.9365963],[-67.682155822,-38.935809535],[-67.683498955,-38.935549496],[-67.683665435,-38.936074004]]}},{"type":"Feature","properties":{"nombre":"Traza Auca Mahuida — Allen (tramo 17)","origen":"DUPLICAR NORTE.kmz"},"geometry":{"type":"LineString","coordinates":[[-68.422968045,-37.725897083],[-68.423184985,-37.726059958],[-68.422903663,-37.726296351],[-68.422686724,-37.726133476],[-68.422968045,-37.725897083]]}},{"type":"Feature","properties":{"nombre":"Traza Auca Mahuida — Allen (tramo 18)","origen":"DUPLICAR NORTE.kmz"},"geometry":{"type":"LineString","coordinates":[[-68.592790254,-37.620417188],[-68.592576585,-37.620218736],[-68.592172234,-37.620494182],[-68.592385903,-37.620692635],[-68.592790254,-37.620417188]]}},{"type":"Feature","properties":{"nombre":"Traza Auca Mahuida — Allen (tramo 19)","origen":"DUPLICAR NORTE.kmz"},"geometry":{"type":"LineString","coordinates":[[-68.592790254,-37.620417188],[-68.592576585,-37.620218736],[-68.592172234,-37.620494182],[-68.592385903,-37.620692635],[-68.592790254,-37.620417188]]}},{"type":"Feature","properties":{"nombre":"Traza Auca Mahuida — Allen (tramo 20)","origen":"DUPLICAR NORTE.kmz"},"geometry":{"type":"LineString","coordinates":[[-68.823127339,-37.485407695],[-68.733237888,-37.520713372],[-68.730379705,-37.520955558],[-68.728073391,-37.521835855],[-68.725874147,-37.523632239],[-68.720988227,-37.525499743],[-68.66282439,-37.572334252],[-68.571279459,-37.635216132],[-68.499744634,-37.685805183],[-68.492642184,-37.690055522],[-68.488691234,-37.693491055],[-68.482549278,-37.69784089],[-68.42801852,-37.724105953],[-68.425628525,-37.724525637],[-68.423642552,-37.725588881],[-68.421003016,-37.727802065],[-68.380225783,-37.749452562],[-68.314591089,-37.784167461],[-68.31064805,-37.785848624],[-68.30939196,-37.78690697],[-68.253548138,-37.816393762],[-68.250416482,-37.817529508],[-68.247709506,-37.819469268],[-68.237744086,-37.824679102],[-68.044183419,-37.93524095],[-67.983311757,-37.969085445],[-67.961104956,-37.97730777],[-67.94242706,-37.985466387],[-67.937687449,-37.990327405],[-67.938524371,-37.993075731],[-67.942014611,-37.996942715],[-67.943289542,-37.996977348],[-67.944484796,-37.99594054]]}},{"type":"Feature","properties":{"nombre":"Traza Auca Mahuida — Allen (tramo 21)","origen":"DUPLICAR NORTE.kmz"},"geometry":{"type":"LineString","coordinates":[[-67.94470385,-37.996090003],[-67.943441555,-37.997086507],[-67.942094903,-37.998988418],[-67.92299148,-38.011436746],[-67.916611872,-38.02359102],[-67.915987702,-38.025598388],[-67.917779068,-38.034506454],[-67.932404619,-38.122969898],[-67.933309498,-38.126372607],[-67.936052154,-38.132571069],[-67.93475965,-38.132935018],[-67.943669146,-38.152671761],[-67.94543714,-38.158026021],[-67.949361263,-38.167392387],[-67.947683184,-38.174709247],[-67.954992769,-38.184665949],[-67.960404508,-38.191298145],[-67.965149527,-38.201107148],[-67.965402241,-38.202771559],[-67.966738603,-38.2051326],[-67.969101282,-38.208047756],[-67.969589941,-38.209391809],[-67.969565833,-38.210793881],[-67.968175967,-38.213445882],[-67.967577901,-38.217824847],[-67.964257094,-38.224937164],[-67.955531333,-38.242037944],[-67.955009087,-38.242541198],[-67.955065007,-38.243199051],[-67.9232948,-38.323510519],[-67.92098389,-38.32538195],[-67.920679361,-38.33001578],[-67.917391094,-38.338454183],[-67.877681429,-38.43845247],[-67.876695482,-38.4398002],[-67.876811319,-38.440470081],[-67.875914021,-38.442863787],[-67.873464396,-38.44882108],[-67.871470062,-38.450830173],[-67.870813923,-38.452298763],[-67.87126704,-38.453670304],[-67.868316198,-38.461630387],[-67.866944624,-38.464453174],[-67.865517053,-38.465994529],[-67.863456736,-38.470475939],[-67.86399784,-38.472262462],[-67.813403917,-38.59932236],[-67.813706148,-38.601163495],[-67.812226571,-38.604918846],[-67.81075775,-38.607442901],[-67.78176302,-38.680051812],[-67.781777766,-38.680930767],[-67.764356441,-38.724996484],[-67.761429484,-38.731791192],[-67.75422905,-38.742454007],[-67.754187329,-38.742915567],[-67.748450095,-38.751061346],[-67.747873922,-38.752831577],[-67.745634908,-38.75524405],[-67.671984762,-38.864910421],[-67.671549663,-38.867865947],[-67.672014807,-38.87047826],[-67.680506614,-38.895150199],[-67.681537711,-38.897221391],[-67.682070288,-38.899793613],[-67.680835817,-38.901982699],[-67.67973562,-38.91266266],[-67.679132897,-38.915329861],[-67.677976489,-38.927301698],[-67.678267317,-38.928283011],[-67.677640089,-38.930873987],[-67.678411792,-38.932563034],[-67.678456968,-38.93347902],[-67.677566784,-38.934037804],[-67.671787986,-38.935323383]]}},{"type":"Feature","properties":{"nombre":"Traza Auca Mahuida — Allen (tramo 22)","origen":"DUPLICAR NORTE.kmz"},"geometry":{"type":"LineString","coordinates":[[-67.671909094,-38.935704492],[-67.672710889,-38.935844207],[-67.675119145,-38.941018253],[-67.675876482,-38.941586531],[-67.676901389,-38.941820298],[-67.683560187,-38.940689585],[-67.684625753,-38.940185505],[-67.685129421,-38.939475504],[-67.685168334,-38.93867916],[-67.684409365,-38.93625237],[-67.683600949,-38.936086489]]}}]}